{
    "links": {
        "self": "http://www.neowsapp.com/rest/v1/neo/3799725?api_key=iIulBulltgU6a56xZRHN4H3l9WmuAYTsLGpBGhQ2"
    },
    "id": "3799725",
    "neo_reference_id": "3799725",
    "name": "(2018 DM1)",
    "designation": "2018 DM1",
    "nasa_jpl_url": "http://ssd.jpl.nasa.gov/sbdb.cgi?sstr=3799725",
    "absolute_magnitude_h": 25.0,
    "estimated_diameter": {
        "kilometers": {
            "estimated_diameter_min": 0.02658,
            "estimated_diameter_max": 0.0594346868
        },
        "meters": {
            "estimated_diameter_min": 26.58,
            "estimated_diameter_max": 59.4346868419
        },
        "miles": {
            "estimated_diameter_min": 0.0165160412,
            "estimated_diameter_max": 0.0369309908
        },
        "feet": {
            "estimated_diameter_min": 87.2047272,
            "estimated_diameter_max": 194.9956979785
        }
    },
    "is_potentially_hazardous_asteroid": false,
    "close_approach_data": [
        {
            "close_approach_date": "2018-02-16",
            "close_approach_date_full": "2018-Feb-16 15:24",
            "epoch_date_close_approach": 1518794640000,
            "relative_velocity": {
                "kilometers_per_second": "15.2999163002",
                "kilometers_per_hour": "55079.6986808744",
                "miles_per_hour": "34224.3827720133"
            },
            "miss_distance": {
                "astronomical": "0.0332390552",
                "lunar": "12.9299924728",
                "kilometers": "4972491.858732424",
                "miles": "3089763.1667944912"
            },
            "orbiting_body": "Earth"
        }
    ],
    "orbital_data": {
        "orbit_id": "2",
        "orbit_determination_date": "2018-03-09 06:23:12",
        "first_observation_date": "2018-02-23",
        "last_observation_date": "2018-03-09",
        "data_arc_in_days": 14,
        "observations_used": 46,
        "orbit_uncertainty": "8",
        "minimum_orbit_intersection": ".0141597",
        "jupiter_tisserand_invariant": "3.416",
        "epoch_osculation": "2458174.5",
        "eccentricity": ".6467106757987905",
        "semi_major_axis": "2.128839920975429",
        "inclination": "5.06081132622712",
        "ascending_node_longitude": "339.401138628317",
        "orbital_period": "1134.522035368587",
        "perihelion_distance": ".7520964170139657",
        "perihelion_argument": "103.5313078419833",
        "aphelion_distance": "3.505583424936893",
        "perihelion_time": "2458124.708419062757",
        "mean_anomaly": "15.79957777689523",
        "mean_motion": ".3173142422774027",
        "equinox": "J2000",
        "orbit_class": {
            "orbit_class_type": "APO",
            "orbit_class_description": "Near-Earth asteroid orbits which cross the Earth’s orbit similar to that of 1862 Apollo",
            "orbit_class_range": "a (semi-major axis) > 1.0 AU; q (perihelion) < 1.017 AU"
        }
    },
    "is_sentry_object": false
}